ONEWEB-0228             
1 48780U 21045P   24290.33136732  .00000160  00000+0  39152-3 0  9993
2 48780  87.9121  20.3589 0001999 102.1515 257.9839 13.15551010165408
